{"type": "FeatureCollection", "features": [ {"type": "Feature", "properties": {"norad_id": 40697, "name": "SENTINEL-2A", "group": "resource", "lat": -5.173501805768193, "lon": -123.01945932992871, "alt_km": 792.6616309286319, "timestamp": "2025-12-11T05:00:25.968260+00:00", "meta": {"OBJECT_NAME": "SENTINEL-2A", "OBJECT_ID": "2015-028A", "EPOCH": "2025-12-10T16:23:48.161184", "MEAN_MOTION": 14.30826934, "ECCENTRICITY": 0.00010718, "INCLINATION": 98.5689, "RA_OF_ASC_NODE": 57.2449, "ARG_OF_PERICENTER": 88.2705, "MEAN_ANOMALY": 271.8601, "EPHEMERIS_TYPE": 0, "CLASSIFICATION_TYPE": "U", "NORAD_CAT_ID": 40697, "ELEMENT_SET_NO": 999, "REV_AT_EPOCH": 54677, "BSTAR": 0.00019746337, "MEAN_MOTION_DOT": 4.74e-06, "MEAN_MOTION_DDOT": 0}, "tle": {"line1": "1 40697U 15028A   25344.68319631  .00000474  00000+0  19746-3 0  9991", "line2": "2 40697  98.5689  57.2449 0001071  88.2705 271.8601 14.30826934546777"}}, "geometry": {"type": "Point", "coordinates": [-123.01945932992871, -5.173501805768193]}}, {"type": "Feature", "properties": {"norad_id": 40701, "name": "GAOFEN-8", "group": "resource", "lat": -1.037489584519531, "lon": 163.41447318290753, "alt_km": 460.296086877026, "timestamp": "2025-12-11T05:00:25.968270+00:00", "meta": {"OBJECT_NAME": "GAOFEN-8", "OBJECT_ID": "2015-030A", "EPOCH": "2025-12-10T22:46:03.702144", "MEAN_MOTION": 15.38448726, "ECCENTRICITY": 0.00115698, "INCLINATION": 97.6915, "RA_OF_ASC_NODE": 163.0017, "ARG_OF_PERICENTER": 143.9656, "MEAN_ANOMALY": 216.237, "EPHEMERIS_TYPE": 0, "CLASSIFICATION_TYPE": "U", "NORAD_CAT_ID": 40701, "ELEMENT_SET_NO": 999, "REV_AT_EPOCH": 58243, "BSTAR": 0.00048738564, "MEAN_MOTION_DOT": 0.00018461, "MEAN_MOTION_DDOT": 0}, "tle": {"line1": "1 40701U 15030A   25344.94865396  .00018461  00000+0  48739-3 0  9992", "line2": "2 40701  97.6915 163.0017 0011569 143.9656 216.2370 15.38448726582436"}}, "geometry": {"type": "Point", "coordinates": [163.41447318290753, -1.037489584519531]}}, {"type": "Feature", "properties": {"norad_id": 40718, "name": "CARBONITE 1 (CBNT-1)", "group": "resource", "lat": -56.92299047431339, "lon": -25.573649647076184, "alt_km": 621.5695073599682, "timestamp": "2025-12-11T05:00:25.968279+00:00", "meta": {"OBJECT_NAME": "CARBONITE 1 (CBNT-1)", "OBJECT_ID": "2015-032D", "EPOCH": "2025-12-10T23:04:48.624096", "MEAN_MOTION": 14.82731319, "ECCENTRICITY": 0.00142171, "INCLINATION": 97.6407, "RA_OF_ASC_NODE": 166.0847, "ARG_OF_PERICENTER": 187.2161, "MEAN_ANOMALY": 172.885, "EPHEMERIS_TYPE": 0, "CLASSIFICATION_TYPE": "U", "NORAD_CAT_ID": 40718, "ELEMENT_SET_NO": 999, "REV_AT_EPOCH": 56144, "BSTAR": 0.0004830734, "MEAN_MOTION_DOT": 3.857e-05, "MEAN_MOTION_DDOT": 0}, "tle": {"line1": "1 40718U 15032D   25344.96167389  .00003857  00000+0  48307-3 0  9995", "line2": "2 40718  97.6407 166.0847 0014217 187.2161 172.8850 14.82731319561448"}}, "geometry": {"type": "Point", "coordinates": [-25.573649647076184, -56.92299047431339]}}, {"type": "Feature", "properties": {"norad_id": 40878, "name": "YAOGAN-27", "group": "resource", "lat": 45.98867095057827, "lon": 165.52978333364695, "alt_km": 1201.0088764274979, "timestamp": "2025-12-11T05:00:25.968290+00:00", "meta": {"OBJECT_NAME": "YAOGAN-27", "OBJECT_ID": "2015-040A", "EPOCH": "2025-12-10T22:51:34.607232", "MEAN_MOTION": 13.16060833, "ECCENTRICITY": 0.00076567, "INCLINATION": 100.1011, "RA_OF_ASC_NODE": 334.6527, "ARG_OF_PERICENTER": 291.1231, "MEAN_ANOMALY": 68.9064, "EPHEMERIS_TYPE": 0, "CLASSIFICATION_TYPE": "U", "NORAD_CAT_ID": 40878, "ELEMENT_SET_NO": 999, "REV_AT_EPOCH": 49290, "BSTAR": 0.00083462613, "MEAN_MOTION_DOT": 2.75e-06, "MEAN_MOTION_DDOT": 0}, "tle": {"line1": "1 40878U 15040A   25344.95248388  .00000275  00000+0  83463-3 0  9992", "line2": "2 40878 100.1011 334.6527 0007656 291.1231  68.9064 13.16060833492904"}}, "geometry": {"type": "Point", "coordinates": [165.52978333364695, 45.98867095057827]}}, {"type": "Feature", "properties": {"norad_id": 40894, "name": "GAOFEN-9 01", "group": "resource", "lat": 19.340853959142155, "lon": -153.06419023458164, "alt_km": 632.2415402486695, "timestamp": "2025-12-11T05:00:25.968300+00:00", "meta": {"OBJECT_NAME": "GAOFEN-9 01", "OBJECT_ID": "2015-047A", "EPOCH": "2025-12-10T23:25:42.208608", "MEAN_MOTION": 14.82414824, "ECCENTRICITY": 0.00285262, "INCLINATION": 97.6544, "RA_OF_ASC_NODE": 24.0078, "ARG_OF_PERICENTER": 39.8694, "MEAN_ANOMALY": 320.4608, "EPHEMERIS_TYPE": 0, "CLASSIFICATION_TYPE": "U", "NORAD_CAT_ID": 40894, "ELEMENT_SET_NO": 999, "REV_AT_EPOCH": 55230, "BSTAR": 0.00022547053, "MEAN_MOTION_DOT": 1.768e-05, "MEAN_MOTION_DDOT": 0}, "tle": {"line1": "1 40894U 15047A   25344.97618297  .00001768  00000+0  22547-3 0  9993", "line2": "2 40894  97.6544  24.0078 0028526  39.8694 320.4608 14.82414824552301"}}, "geometry": {"type": "Point", "coordinates": [-153.06419023458164, 19.340853959142155]}}, {"type": "Feature", "properties": {"norad_id": 41026, "name": "YAOGAN-28", "group": "resource", "lat": 78.1970724156408, "lon": 85.32291746010249, "alt_km": 480.14555257972825, "timestamp": "2025-12-11T05:00:25.968310+00:00", "meta": {"OBJECT_NAME": "YAOGAN-28", "OBJECT_ID": "2015-064A", "EPOCH": "2025-12-10T22:21:09.159264", "MEAN_MOTION": 15.24304198, "ECCENTRICITY": 0.00123099, "INCLINATION": 97.2806, "RA_OF_ASC_NODE": 122.7747, "ARG_OF_PERICENTER": 131.9128, "MEAN_ANOMALY": 228.3162, "EPHEMERIS_TYPE": 0, "CLASSIFICATION_TYPE": "U", "NORAD_CAT_ID": 41026, "ELEMENT_SET_NO": 999, "REV_AT_EPOCH": 56197, "BSTAR": 0.00057261948, "MEAN_MOTION_DOT": 0.00013968, "MEAN_MOTION_DDOT": 0}, "tle": {"line1": "1 41026U 15064A   25344.93135601  .00013968  00000+0  57262-3 0  9996", "line2": "2 41026  97.2806 122.7747 0012309 131.9128 228.3162 15.24304198561976"}}, "geometry": {"type": "Point", "coordinates": [85.32291746010249, 78.1970724156408]}}, {"type": "Feature", "properties": {"norad_id": 41038, "name": "YAOGAN-29", "group": "resource", "lat": 44.68660889055181, "lon": 0.356370465387505, "alt_km": 616.3683084180648, "timestamp": "2025-12-11T05:00:25.968320+00:00", "meta": {"OBJECT_NAME": "YAOGAN-29", "OBJECT_ID": "2015-069A", "EPOCH": "2025-12-10T23:56:43.706112", "MEAN_MOTION": 14.82877438, "ECCENTRICITY": 3.082e-05, "INCLINATION": 98.022, "RA_OF_ASC_NODE": 8.1633, "ARG_OF_PERICENTER": 342.1104, "MEAN_ANOMALY": 18.0099, "EPHEMERIS_TYPE": 0, "CLASSIFICATION_TYPE": "U", "NORAD_CAT_ID": 41038, "ELEMENT_SET_NO": 999, "REV_AT_EPOCH": 54273, "BSTAR": 2.447782e-05, "MEAN_MOTION_DOT": 1.44e-06, "MEAN_MOTION_DDOT": 0}, "tle": {"line1": "1 41038U 15069A   25344.99772808  .00000144  00000+0  24478-4 0  9992", "line2": "2 41038  98.0220   8.1633 0000308 342.1104  18.0099 14.82877438542736"}}, "geometry": {"type": "Point", "coordinates": [0.356370465387505, 44.68660889055181]}}, {"type": "Feature", "properties": {"norad_id": 41167, "name": "KENT RIDGE 1", "group": "resource", "lat": 11.026259130180662, "lon": -90.70874204186075, "alt_km": 493.822444255914, "timestamp": "2025-12-11T05:00:25.968331+00:00", "meta": {"OBJECT_NAME": "KENT RIDGE 1", "OBJECT_ID": "2015-077B", "EPOCH": "2025-12-10T22:30:20.164032", "MEAN_MOTION": 15.21613004, "ECCENTRICITY": 0.00085338, "INCLINATION": 14.9787, "RA_OF_ASC_NODE": 224.5126, "ARG_OF_PERICENTER": 105.1226, "MEAN_ANOMALY": 255.004, "EPHEMERIS_TYPE": 0, "CLASSIFICATION_TYPE": "U", "NORAD_CAT_ID": 41167, "ELEMENT_SET_NO": 999, "REV_AT_EPOCH": 55236, "BSTAR": 0.00025399687, "MEAN_MOTION_DOT": 6.673e-05, "MEAN_MOTION_DDOT": 0}, "tle": {"line1": "1 41167U 15077B   25344.93773338  .00006673  00000+0  25400-3 0  9995", "line2": "2 41167  14.9787 224.5126 0008533 105.1226 255.0040 15.21613004552365"}}, "geometry": {"type": "Point", "coordinates": [-90.70874204186075, 11.026259130180662]}}, {"type": "Feature", "properties": {"norad_id": 41194, "name": "GAOFEN-4", "group": "resource", "lat": -0.019035708222633282, "lon": -98.98421189217271, "alt_km": 35782.29070834501, "timestamp": "2025-12-11T05:00:25.968343+00:00", "meta": {"OBJECT_NAME": "GAOFEN-4", "OBJECT_ID": "2015-083A", "EPOCH": "2025-12-10T20:53:33.834336", "MEAN_MOTION": 1.00270167, "ECCENTRICITY": 0.00035478, "INCLINATION": 0.166, "RA_OF_ASC_NODE": 80.8931, "ARG_OF_PERICENTER": 106.7045, "MEAN_ANOMALY": 311.3345, "EPHEMERIS_TYPE": 0, "CLASSIFICATION_TYPE": "U", "NORAD_CAT_ID": 41194, "ELEMENT_SET_NO": 999, "REV_AT_EPOCH": 3664, "BSTAR": 0, "MEAN_MOTION_DOT": -3.3e-06, "MEAN_MOTION_DDOT": 0}, "tle": {"line1": "1 41194U 15083A   25344.87053049 -.00000330  00000+0  00000+0 0  9995", "line2": "2 41194   0.1660  80.8931 0003547 106.7045 311.3345  1.00270167 36648"}}, "geometry": {"type": "Point", "coordinates": [-98.98421189217271, -0.019035708222633282]}}, {"type": "Feature", "properties": {"norad_id": 41240, "name": "JASON-3", "group": "resource", "lat": 48.29743555781776, "lon": -169.02053490574912, "alt_km": 1310.1618824617472, "timestamp": "2025-12-11T05:00:25.968354+00:00", "meta": {"OBJECT_NAME": "JASON-3", "OBJECT_ID": "2016-002A", "EPOCH": "2025-12-10T21:16:02.064000", "MEAN_MOTION": 12.87626418, "ECCENTRICITY": 0.00071539, "INCLINATION": 66.0389, "RA_OF_ASC_NODE": 161.7212, "ARG_OF_PERICENTER": 270.7011, "MEAN_ANOMALY": 89.3188, "EPHEMERIS_TYPE": 0, "CLASSIFICATION_TYPE": "U", "NORAD_CAT_ID": 41240, "ELEMENT_SET_NO": 999, "REV_AT_EPOCH": 46300, "BSTAR": 8.5491375e-05, "MEAN_MOTION_DOT": -4.1e-07, "MEAN_MOTION_DDOT": 0}, "tle": {"line1": "1 41240U 16002A   25344.88613500 -.00000041  00000+0  85491-4 0  9995", "line2": "2 41240  66.0389 161.7212 0007153 270.7011  89.3188 12.87626418463004"}}, "geometry": {"type": "Point", "coordinates": [-169.02053490574912, 48.29743555781776]}}]}